NORAD_CAT_ID,OBJECT_NAME,OBJECT_TYPE,EPOCH,MEAN_MOTION,ECCENTRICITY,INCLINATION,RA_OF_ASC_NODE,ARG_OF_PERICENTER,MEAN_ANOMALY,BSTAR,MEAN_MOTION_DOT,MEAN_MOTION_DDOT,TLE_LINE0,TLE_LINE1,TLE_LINE2,SEMIMAJOR_AXIS,PERIOD,APOGEE,PERIGEE,DECAYED
55656.0,STARLINK-5326,PAYLOAD,2023-06-06 14:00:01,15.38979084,0.0003102,69.9985,205.2167,276.9953,280.0249,-0.025262,-0.00899304,0.0,0 STARLINK-5326,1 55656U 23021AE  23157.58334491 -.00899304  00000-0 -25262-1 0  9993,2 55656  69.9985 205.2167 0003102 276.9953 280.0249 15.38979084  1308,6827.264,93.569,451.247,447.011,0.0
55656.0,STARLINK-5326,PAYLOAD,2023-06-06 20:00:01,15.38483356,0.0003125,69.9984,204.5459,274.2109,227.2684,-0.025677,-0.00899339,0.0,0 STARLINK-5326,1 55656U 23021AE  23157.83334491 -.00899339  00000-0 -25677-1 0  9999,2 55656  69.9984 204.5459 0003125 274.2109 227.2684 15.38483356 17633,6828.73,93.599,452.729,448.462,0.0
55656.0,STARLINK-5326,PAYLOAD,2023-06-07 12:34:14,15.38919932,0.000386,69.9968,202.6989,273.7631,86.3108,-0.0073423,-0.00273961,0.0,0 STARLINK-5326,1 55656U 23021AE  23158.52378014 -.00273961  00000-0 -73423-2 0  9995,2 55656  69.9968 202.6989 0003860 273.7631  86.3108 15.38919932 18047,6827.439,93.572,451.939,446.669,0.0
55656.0,STARLINK-5326,PAYLOAD,2023-06-07 14:00:01,15.37024494,0.0003314,69.9987,202.5366,276.0539,56.1433,-0.027038,-0.0090279,0.0,0 STARLINK-5326,1 55656U 23021AE  23158.58334491 -.00902790  00000-0 -27038-1 0  9991,2 55656  69.9987 202.5366 0003314 276.0539  56.1433 15.37024494 17755,6833.051,93.688,457.18,452.651,0.0
55656.0,STARLINK-5326,PAYLOAD,2023-06-07 22:00:00,15.36339889,0.0003336,69.9987,201.645,270.926,104.7761,-0.025901,-0.00850122,0.0,0 STARLINK-5326,1 55656U 23021AE  23158.91667824 -.00850122  00000-0 -25901-1 0  9995,2 55656  69.9987 201.6450 0003336 270.9260 104.7761 15.36339889  1301,6835.081,93.729,459.226,454.665,0.0
55656.0,STARLINK-5326,PAYLOAD,2023-06-08 06:00:00,15.35744127,0.0003303,69.9991,200.7543,271.825,146.5765,-0.029938,-0.00954405,0.0,0 STARLINK-5326,1 55656U 23021AE  23159.25001157 -.00954405  00000-0 -29938-1 0  9997,2 55656  69.9991 200.7543 0003303 271.8250 146.5765 15.35744127 17851,6836.848,93.766,460.971,456.455,0.0
55656.0,STARLINK-5326,PAYLOAD,2023-06-08 13:34:38,15.36854041,0.000332,69.9965,199.9155,295.1758,64.9076,-0.0082067,-0.00285855,0.0,0 STARLINK-5326,1 55656U 23021AE  23159.56572503 -.00285855  00000-0 -82067-2 0  9998,2 55656  69.9965 199.9155 0003320 295.1758  64.9076 15.36854041 18207,6833.556,93.698,457.69,453.152,0.0
55656.0,STARLINK-5326,PAYLOAD,2023-06-08 22:00:00,15.34384325,0.0003154,69.9989,198.9755,270.9556,230.5354,-0.027586,-0.00850324,0.0,0 STARLINK-5326,1 55656U 23021AE  23159.91667824 -.00850324  00000-0 -27586-1 0  9991,2 55656  69.9989 198.9755 0003154 270.9556 230.5354 15.34384325 17952,6840.887,93.849,464.909,460.594,0.0
55656.0,STARLINK-5326,PAYLOAD,2023-06-09 06:00:00,15.33780175,0.0003186,69.9992,198.0874,271.0516,270.7959,-0.031491,-0.00943744,0.0,0 STARLINK-5326,1 55656U 23021AE  23160.25001157 -.00943744  00000-0 -31491-1 0  9990,2 55656  69.9992 198.0874 0003186 271.0516 270.7959 15.33780175 18008,6842.683,93.886,466.728,462.368,0.0
55656.0,STARLINK-5326,PAYLOAD,2023-06-09 13:03:02,15.3490748,0.000342,69.9945,197.3074,274.0084,86.0703,-0.0084802,-0.00277802,0.0,0 STARLINK-5326,1 55656U 23021AE  23160.54377363 -.00277802  00000-0 -84802-2 0  9997,2 55656  69.9945 197.3074 0003420 274.0084  86.0703 15.34907480 18358,6839.332,93.817,463.536,458.858,0.0
55656.0,STARLINK-5326,PAYLOAD,2023-06-09 22:00:00,15.32426994,0.0003201,69.9993,196.3141,268.6597,351.5812,-0.029316,-0.00849413,0.0,0 STARLINK-5326,1 55656U 23021AE  23160.91667824 -.00849413  00000-0 -29316-1 0  9993,2 55656  69.9993 196.3141 0003201 268.6597 351.5812 15.32426994 18108,6846.711,93.969,470.767,466.384,0.0
55656.0,STARLINK-5326,PAYLOAD,2023-06-10 06:00:02,15.318221,0.0003339,69.9994,195.4288,270.212,28.1023,-0.03338,-0.00940695,0.0,0 STARLINK-5326,1 55656U 23021AE  23161.25002315 -.00940695  00000-0 -33380-1 0  9999,2 55656  69.9994 195.4288 0003339 270.2120  28.1023 15.31822100 18158,6848.513,94.006,472.665,468.091,0.0
55656.0,STARLINK-5326,PAYLOAD,2023-06-10 14:00:01,15.31166598,0.0003345,69.9991,194.5443,274.1297,61.3529,-0.033375,-0.00923021,0.0,0 STARLINK-5326,1 55656U 23021AE  23161.58334491 -.00923021  00000-0 -33375-1 0  9996,2 55656  69.9991 194.5443 0003345 274.1297  61.3529 15.31166598  1304,6850.468,94.046,474.624,470.041,0.0
55656.0,STARLINK-5326,PAYLOAD,2023-06-10 22:00:00,15.30467962,0.0003359,69.9994,193.6608,267.7107,104.2405,-0.031021,-0.00845716,0.0,0 STARLINK-5326,1 55656U 23021AE  23161.91667824 -.00845716  00000-0 -31021-1 0  9992,2 55656  69.9994 193.6608 0003359 267.7107 104.2405 15.30467962 18264,6852.552,94.089,476.719,472.115,0.0
55656.0,STARLINK-5326,PAYLOAD,2023-06-11 06:00:00,15.29864384,0.0003416,69.9996,192.7783,271.0335,136.5802,-0.035485,-0.00952758,0.0,0 STARLINK-5326,1 55656U 23021AE  23162.25001157 -.00952758  00000-0 -35485-1 0  9994,2 55656  69.9996 192.7783 0003416 271.0335 136.5802 15.29864384 18317,6854.354,94.126,478.561,473.878,0.0
55656.0,STARLINK-5326,PAYLOAD,2023-06-11 14:00:01,15.29211306,0.0003327,69.9991,191.8963,276.0197,166.4785,-0.035642,-0.0092725,0.0,0 STARLINK-5326,1 55656U 23021AE  23162.58334491 -.00927250  00000-0 -35642-1 0  9994,2 55656  69.9991 191.8963 0003327 276.0197 166.4785 15.29211306  1307,6856.306,94.166,480.452,475.89,0.0
55656.0,STARLINK-5326,PAYLOAD,2023-06-11 22:00:00,15.28511989,0.0003254,69.9995,191.0154,268.306,208.3124,-0.032881,-0.00843959,0.0,0 STARLINK-5326,1 55656U 23021AE  23162.91667824 -.00843959  00000-0 -32881-1 0  9995,2 55656  69.9995 191.0154 0003254 268.3060 208.3124 15.28511989 18419,6858.397,94.209,482.494,478.03,0.0
55656.0,STARLINK-5326,PAYLOAD,2023-06-12 06:00:00,15.2790393,0.0003289,69.9996,190.1353,271.1579,238.7798,-0.037527,-0.00948851,0.0,0 STARLINK-5326,1 55656U 23021AE  23163.25001157 -.00948851  00000-0 -37527-1 0  9993,2 55656  69.9996 190.1353 0003289 271.1579 238.7798 15.27903930 18465,6860.216,94.247,484.338,479.825,0.0
55656.0,STARLINK-5326,PAYLOAD,2023-06-12 14:00:01,15.27254916,0.000329,69.9992,189.256,275.5413,266.9952,-0.037919,-0.00940586,0.0,0 STARLINK-5326,1 55656U 23021AE  23163.58335648 -.00940586  00000-0 -37919-1 0  9996,2 55656  69.9992 189.2560 0003290 275.5413 266.9952 15.27254916  1300,6862.16,94.287,486.282,481.767,0.0
55656.0,STARLINK-5326,PAYLOAD,2023-06-12 22:00:00,15.26561505,0.0003325,69.9993,188.3776,268.5851,305.6587,-0.035348,-0.00853996,0.0,0 STARLINK-5326,1 55656U 23021AE  23163.91667824 -.00853996  00000-0 -35348-1 0  9999,2 55656  69.9993 188.3776 0003325 268.5851 305.6587 15.26561505 18562,6864.238,94.33,488.385,483.82,0.0
55656.0,STARLINK-5326,PAYLOAD,2023-06-13 00:00:00,15.26433389,0.0003495,69.9994,188.1583,267.7785,44.2702,-0.037912,-0.0090767,0.0,0 STARLINK-5326,1 55656U 23021AE  23164.00001157 -.00907670  00000-0 -37912-1 0  9999,2 55656  69.9994 188.1583 0003495 267.7785  44.2702 15.26433389  1309,6864.622,94.338,488.886,484.087,0.0
55656.0,STARLINK-5326,PAYLOAD,2023-06-13 06:00:02,15.25942134,0.0003398,69.9996,187.5001,270.655,334.6285,-0.039444,-0.00940239,0.0,0 STARLINK-5326,1 55656U 23021AE  23164.25002315 -.00940239  00000-0 -39444-1 0  9993,2 55656  69.9996 187.5001 0003398 270.6550 334.6285 15.25942134 18610,6866.095,94.368,490.293,485.627,0.0
55656.0,STARLINK-5326,PAYLOAD,2023-06-13 14:00:01,15.25298108,0.0003496,69.999,186.6234,273.6778,1.7287,-0.040295,-0.00941928,0.0,0 STARLINK-5326,1 55656U 23021AE  23164.58334491 -.00941928  00000-0 -40295-1 0  9994,2 55656  69.9990 186.6234 0003496 273.6778   1.7287 15.25298108  1303,6868.027,94.408,492.293,487.491,0.0
55656.0,STARLINK-5326,PAYLOAD,2023-06-13 22:00:00,15.24608198,0.0003492,69.9991,185.7477,267.5305,37.2996,-0.037755,-0.00859495,0.0,0 STARLINK-5326,1 55656U 23021AE  23164.91667824 -.00859495  00000-0 -37755-1 0  9994,2 55656  69.9991 185.7477 0003492 267.5305  37.2996 15.24608198  1301,6870.099,94.45,494.363,489.565,0.0
55656.0,STARLINK-5326,PAYLOAD,2023-06-14 14:00:01,15.23344207,0.0003568,69.9988,183.9987,274.6229,86.6761,-0.042936,-0.00946293,0.0,0 STARLINK-5326,1 55656U 23021AE  23165.58334491 -.00946293  00000-0 -42936-1 0  9999,2 55656  69.9988 183.9987 0003568 274.6229  86.6761 15.23344207 18821,6873.899,94.529,498.217,493.311,0.0
55656.0,STARLINK-5326,PAYLOAD,2023-06-14 22:00:00,15.22654567,0.0003529,69.9987,183.1256,268.4673,119.9083,-0.040323,-0.00865473,0.0,0 STARLINK-5326,1 55656U 23021AE  23165.91667824 -.00865473  00000-0 -40323-1 0  9993,2 55656  69.9987 183.1256 0003529 268.4673 119.9083 15.22654567  1306,6875.974,94.572,500.266,495.413,0.0
55656.0,STARLINK-5326,PAYLOAD,2023-06-15 14:00:01,15.21366103,0.0003636,69.9984,181.3818,275.7702,164.3909,-0.044037,-0.00917559,0.0,0 STARLINK-5326,1 55656U 23021AE  23166.58334491 -.00917559  00000-0 -44037-1 0  9997,2 55656  69.9984 181.3818 0003636 275.7702 164.3909 15.21366103  1306,6879.856,94.652,504.223,499.22,0.0
55656.0,STARLINK-5326,PAYLOAD,2023-06-15 20:00:01,15.20846168,0.0003636,69.9985,180.7288,269.4455,99.3347,-0.041553,-0.00847072,0.0,0 STARLINK-5326,1 55656U 23021AE  23166.83334491 -.00847072  00000-0 -41553-1 0  9997,2 55656  69.9985 180.7288 0003636 269.4455  99.3347 15.20846168 19019,6881.424,94.684,505.791,500.787,0.0
55656.0,STARLINK-5326,PAYLOAD,2023-06-16 06:00:00,15.20067596,0.0003387,69.9986,179.6416,271.3617,217.4588,-0.046635,-0.00934052,0.0,0 STARLINK-5326,1 55656U 23021AE  23167.25001157 -.00934052  00000-0 -46635-1 0  9995,2 55656  69.9986 179.6416 0003387 271.3617 217.4588 15.20067596 19071,6883.774,94.733,507.97,503.307,0.0
55656.0,STARLINK-5326,PAYLOAD,2023-06-16 14:00:01,15.19436851,0.0003306,69.9981,178.7727,274.0789,237.8839,-0.048772,-0.00957179,0.0,0 STARLINK-5326,1 55656U 23021AE  23167.58334491 -.00957179  00000-0 -48772-1 0  9990,2 55656  69.9981 178.7727 0003306 274.0789 237.8839 15.19436851  1306,6885.678,94.772,509.82,505.267,0.0
